{
  "type": "FeatureCollection",
  "features": [
    {
      "type": "Feature",
      "properties": {
        "norad_id": 34634,
        "name": "COSMOS 2251 DEB",
        "group": "cosmos-2251-debris",
        "lat": -31.890644280349314,
        "lon": -119.00508003732888,
        "alt_km": 693.8048955674903,
        "timestamp": "2025-12-04T09:47:37.914569+00:00",
        "meta_object_name": "COSMOS 2251 DEB",
        "meta_object_id": "1993-036XF",
        "meta_epoch": "2025-12-03T04:55:03.889632",
        "meta_mean_motion": 14.55607531,
        "meta_eccentricity": 0.00447165,
        "meta_inclination": 74.0529,
        "meta_ra_of_asc_node": 53.0232,
        "meta_arg_of_pericenter": 163.1109,
        "meta_mean_anomaly": 227.4386,
        "meta_ephemeris_type": 0,
        "meta_classification_type": "U",
        "meta_norad_cat_id": 34634,
        "meta_element_set_no": 999,
        "meta_rev_at_epoch": 88643,
        "meta_bstar": 0.00055498013,
        "meta_mean_motion_dot": 2.426e-05,
        "meta_mean_motion_ddot": 0,
        "tle_line1": "1 34634U 93036XF  25337.20490613  .00002426  00000+0  55498-3 0  9993",
        "tle_line2": "2 34634  74.0529  53.0232 0044716 163.1109 227.4386 14.55607531886435"
      },
      "geometry": {
        "type": "Point",
        "coordinates": [
          -119.00508003732888,
          -31.890644280349314
        ]
      }
    },
    {
      "type": "Feature",
      "properties": {
        "norad_id": 34635,
        "name": "COSMOS 2251 DEB",
        "group": "cosmos-2251-debris",
        "lat": 55.164057679076265,
        "lon": 111.08397749877756,
        "alt_km": 665.0807443263375,
        "timestamp": "2025-12-04T09:47:37.914579+00:00",
        "meta_object_name": "COSMOS 2251 DEB",
        "meta_object_id": "1993-036XG",
        "meta_epoch": "2025-12-04T03:16:54.982272",
        "meta_mean_motion": 14.6805181,
        "meta_eccentricity": 0.0029507,
        "meta_inclination": 74.0457,
        "meta_ra_of_asc_node": 87.3368,
        "meta_arg_of_pericenter": 158.8748,
        "meta_mean_anomaly": 266.7454,
        "meta_ephemeris_type": 0,
        "meta_classification_type": "U",
        "meta_norad_cat_id": 34635,
        "meta_element_set_no": 999,
        "meta_rev_at_epoch": 73093,
        "meta_bstar": 0.0032027,
        "meta_mean_motion_dot": 0.00018519,
        "meta_mean_motion_ddot": 0,
        "tle_line1": "1 34635U 93036XG  25338.13674748  .00018519  00000+0  32027-2 0  9992",
        "tle_line2": "2 34635  74.0457  87.3368 0029507 158.8748 266.7454 14.68051810730939"
      },
      "geometry": {
        "type": "Point",
        "coordinates": [
          111.08397749877756,
          55.164057679076265
        ]
      }
    },
    {
      "type": "Feature",
      "properties": {
        "norad_id": 34637,
        "name": "COSMOS 2251 DEB",
        "group": "cosmos-2251-debris",
        "lat": 45.06288589868607,
        "lon": -79.61413690457361,
        "alt_km": 669.4316192458182,
        "timestamp": "2025-12-04T09:47:37.914589+00:00",
        "meta_object_name": "COSMOS 2251 DEB",
        "meta_object_id": "1993-036XJ",
        "meta_epoch": "2025-12-03T08:38:20.779008",
        "meta_mean_motion": 14.59934348,
        "meta_eccentricity": 0.0050664,
        "meta_inclination": 74.0477,
        "meta_ra_of_asc_node": 119.0417,
        "meta_arg_of_pericenter": 191.6838,
        "meta_mean_anomaly": 194.9044,
        "meta_ephemeris_type": 0,
        "meta_classification_type": "U",
        "meta_norad_cat_id": 34637,
        "meta_element_set_no": 999,
        "meta_rev_at_epoch": 88390,
        "meta_bstar": 0.0016283,
        "meta_mean_motion_dot": 7.923e-05,
        "meta_mean_motion_ddot": 0,
        "tle_line1": "1 34637U 93036XJ  25337.35996272  .00007923  00000+0  16283-2 0  9999",
        "tle_line2": "2 34637  74.0477 119.0417 0050664 191.6838 194.9044 14.59934348883903"
      },
      "geometry": {
        "type": "Point",
        "coordinates": [
          -79.61413690457361,
          45.06288589868607
        ]
      }
    },
    {
      "type": "Feature",
      "properties": {
        "norad_id": 34641,
        "name": "COSMOS 2251 DEB",
        "group": "cosmos-2251-debris",
        "lat": 5.318102321156134,
        "lon": 99.07732392041957,
        "alt_km": 709.0414148921236,
        "timestamp": "2025-12-04T09:47:37.914599+00:00",
        "meta_object_name": "COSMOS 2251 DEB",
        "meta_object_id": "1993-036XN",
        "meta_epoch": "2025-12-04T02:19:42.190176",
        "meta_mean_motion": 14.51887703,
        "meta_eccentricity": 0.0017602,
        "meta_inclination": 73.8383,
        "meta_ra_of_asc_node": 98.1232,
        "meta_arg_of_pericenter": 15.6609,
        "meta_mean_anomaly": 164.8193,
        "meta_ephemeris_type": 0,
        "meta_classification_type": "U",
        "meta_norad_cat_id": 34641,
        "meta_element_set_no": 999,
        "meta_rev_at_epoch": 88130,
        "meta_bstar": 0.0021675,
        "meta_mean_motion_dot": 8.736e-05,
        "meta_mean_motion_ddot": 0,
        "tle_line1": "1 34641U 93036XN  25338.09701609  .00008736  00000+0  21675-2 0  9998",
        "tle_line2": "2 34641  73.8383  98.1232 0017602  15.6609 164.8193 14.51887703881306"
      },
      "geometry": {
        "type": "Point",
        "coordinates": [
          99.07732392041957,
          5.318102321156134
        ]
      }
    },
    {
      "type": "Feature",
      "properties": {
        "norad_id": 34642,
        "name": "COSMOS 2251 DEB",
        "group": "cosmos-2251-debris",
        "lat": -56.65835087757435,
        "lon": -159.92018831047102,
        "alt_km": 836.019700532931,
        "timestamp": "2025-12-04T09:47:37.914610+00:00",
        "meta_object_name": "COSMOS 2251 DEB",
        "meta_object_id": "1993-036XP",
        "meta_epoch": "2025-12-03T19:46:36.748416",
        "meta_mean_motion": 13.98929953,
        "meta_eccentricity": 0.02080507,
        "meta_inclination": 74.0052,
        "meta_ra_of_asc_node": 355.2445,
        "meta_arg_of_pericenter": 177.1299,
        "meta_mean_anomaly": 0.8483,
        "meta_ephemeris_type": 0,
        "meta_classification_type": "U",
        "meta_norad_cat_id": 34642,
        "meta_element_set_no": 999,
        "meta_rev_at_epoch": 85168,
        "meta_bstar": 0.001499188,
        "meta_mean_motion_dot": 2.582e-05,
        "meta_mean_motion_ddot": 0,
        "tle_line1": "1 34642U 93036XP  25337.82403644  .00002582  00000+0  14992-2 0  9994",
        "tle_line2": "2 34642  74.0052 355.2445 0208050 177.1299   0.8483 13.98929953851687"
      },
      "geometry": {
        "type": "Point",
        "coordinates": [
          -159.92018831047102,
          -56.65835087757435
        ]
      }
    },
    {
      "type": "Feature",
      "properties": {
        "norad_id": 34671,
        "name": "COSMOS 2251 DEB",
        "group": "cosmos-2251-debris",
        "lat": 23.531147855293092,
        "lon": 157.54250766270533,
        "alt_km": 678.7134981443933,
        "timestamp": "2025-12-04T09:47:37.914619+00:00",
        "meta_object_name": "COSMOS 2251 DEB",
        "meta_object_id": "1993-036XR",
        "meta_epoch": "2025-12-02T18:28:46.543296",
        "meta_mean_motion": 14.66635988,
        "meta_eccentricity": 0.00121385,
        "meta_inclination": 74.0249,
        "meta_ra_of_asc_node": 153.5364,
        "meta_arg_of_pericenter": 231.9142,
        "meta_mean_anomaly": 147.1832,
        "meta_ephemeris_type": 0,
        "meta_classification_type": "U",
        "meta_norad_cat_id": 34671,
        "meta_element_set_no": 999,
        "meta_rev_at_epoch": 88151,
        "meta_bstar": 0.0019192945,
        "meta_mean_motion_dot": 0.00010666,
        "meta_mean_motion_ddot": 0,
        "tle_line1": "1 34671U 93036XR  25336.76998314  .00010666  00000+0  19193-2 0  9991",
        "tle_line2": "2 34671  74.0249 153.5364 0012138 231.9142 147.1832 14.66635988881518"
      },
      "geometry": {
        "type": "Point",
        "coordinates": [
          157.54250766270533,
          23.531147855293092
        ]
      }
    },
    {
      "type": "Feature",
      "properties": {
        "norad_id": 34672,
        "name": "COSMOS 2251 DEB",
        "group": "cosmos-2251-debris",
        "lat": 33.758209747060434,
        "lon": -28.06896891521862,
        "alt_km": 751.2146252840466,
        "timestamp": "2025-12-04T09:47:37.914629+00:00",
        "meta_object_name": "COSMOS 2251 DEB",
        "meta_object_id": "1993-036XS",
        "meta_epoch": "2025-12-03T05:16:26.844096",
        "meta_mean_motion": 14.36383689,
        "meta_eccentricity": 0.0023434,
        "meta_inclination": 74.0334,
        "meta_ra_of_asc_node": 323.0813,
        "meta_arg_of_pericenter": 37.198,
        "meta_mean_anomaly": 335.8708,
        "meta_ephemeris_type": 0,
        "meta_classification_type": "U",
        "meta_norad_cat_id": 34672,
        "meta_element_set_no": 999,
        "meta_rev_at_epoch": 65041,
        "meta_bstar": 0.00037825,
        "meta_mean_motion_dot": 1.085e-05,
        "meta_mean_motion_ddot": 0,
        "tle_line1": "1 34672U 93036XS  25337.21975514  .00001085  00000+0  37825-3 0  9998",
        "tle_line2": "2 34672  74.0334 323.0813 0023434  37.1980 335.8708 14.36383689650410"
      },
      "geometry": {
        "type": "Point",
        "coordinates": [
          -28.06896891521862,
          33.758209747060434
        ]
      }
    }
  ]
}